{
    "links": {
        "self": "http://www.neowsapp.com/rest/v1/neo/3596675?api_key=iIulBulltgU6a56xZRHN4H3l9WmuAYTsLGpBGhQ2"
    },
    "id": "3596675",
    "neo_reference_id": "3596675",
    "name": "(2012 BA77)",
    "designation": "2012 BA77",
    "nasa_jpl_url": "http://ssd.jpl.nasa.gov/sbdb.cgi?sstr=3596675",
    "absolute_magnitude_h": 25.8,
    "estimated_diameter": {
        "kilometers": {
            "estimated_diameter_min": 0.0183888672,
            "estimated_diameter_max": 0.0411187571
        },
        "meters": {
            "estimated_diameter_min": 18.388867207,
            "estimated_diameter_max": 41.1187571041
        },
        "miles": {
            "estimated_diameter_min": 0.0114263088,
            "estimated_diameter_max": 0.0255500032
        },
        "feet": {
            "estimated_diameter_min": 60.3309310875,
            "estimated_diameter_max": 134.9040630575
        }
    },
    "is_potentially_hazardous_asteroid": false,
    "close_approach_data": [
        {
            "close_approach_date": "1924-12-16",
            "close_approach_date_full": "1924-Dec-16 01:02",
            "epoch_date_close_approach": -1421449080000,
            "relative_velocity": {
                "kilometers_per_second": "10.5951342368",
                "kilometers_per_hour": "38142.4832526539",
                "miles_per_hour": "23700.255774406"
            },
            "miss_distance": {
                "astronomical": "0.0999619304",
                "lunar": "38.8851909256",
                "kilometers": "14954091.868928248",
                "miles": "9292041.8096479024"
            },
            "orbiting_body": "Earth"
        },
        {
            "close_approach_date": "2012-01-13",
            "close_approach_date_full": "2012-Jan-13 06:11",
            "epoch_date_close_approach": 1326435060000,
            "relative_velocity": {
                "kilometers_per_second": "13.0454147605",
                "kilometers_per_hour": "46963.4931379375",
                "miles_per_hour": "29181.2882778479"
            },
            "miss_distance": {
                "astronomical": "0.024091381",
                "lunar": "9.371547209",
                "kilometers": "3604019.28295847",
                "miles": "2239433.738508086"
            },
            "orbiting_body": "Earth"
        }
    ],
    "orbital_data": {
        "orbit_id": "6",
        "orbit_determination_date": "2017-04-06 08:51:11",
        "first_observation_date": "2012-01-24",
        "last_observation_date": "2012-01-29",
        "data_arc_in_days": 5,
        "observations_used": 12,
        "orbit_uncertainty": "9",
        "minimum_orbit_intersection": ".000120148",
        "jupiter_tisserand_invariant": "3.247",
        "epoch_osculation": "2455951.5",
        "eccentricity": ".632221967016336",
        "semi_major_axis": "2.361923113951065",
        "inclination": "1.185211881773064",
        "ascending_node_longitude": "196.6297337127698",
        "orbital_period": "1325.858145862964",
        "perihelion_distance": ".8686634369075729",
        "perihelion_argument": "228.2796199286127",
        "aphelion_distance": "3.855182790994556",
        "perihelion_time": "2455906.942046977600",
        "mean_anomaly": "12.09847609875599",
        "mean_motion": ".2715222598460457",
        "equinox": "J2000",
        "orbit_class": {
            "orbit_class_type": "APO",
            "orbit_class_description": "Near-Earth asteroid orbits which cross the Earth’s orbit similar to that of 1862 Apollo",
            "orbit_class_range": "a (semi-major axis) > 1.0 AU; q (perihelion) < 1.017 AU"
        }
    },
    "is_sentry_object": false
}